{"type": "FeatureCollection", "features": [ {"type": "Feature", "properties": {"norad_id": 46271, "name": "COSMOS 2251 DEB", "group": "cosmos-2251-debris", "lat": 20.98478443539518, "lon": -112.07358278464126, "alt_km": 697.7348975980321, "timestamp": "2025-12-14T20:40:32.171488+00:00", "meta": {"OBJECT_NAME": "COSMOS 2251 DEB", "OBJECT_ID": "1993-036BWT", "EPOCH": "2025-12-13T12:31:04.945728", "MEAN_MOTION": 14.51432148, "ECCENTRICITY": 0.0040256, "INCLINATION": 74.0483, "RA_OF_ASC_NODE": 76.7438, "ARG_OF_PERICENTER": 198.1951, "MEAN_ANOMALY": 161.7773, "EPHEMERIS_TYPE": 0, "CLASSIFICATION_TYPE": "U", "NORAD_CAT_ID": 46271, "ELEMENT_SET_NO": 999, "REV_AT_EPOCH": 84653, "BSTAR": 0.00056149048, "MEAN_MOTION_DOT": 2.237e-05, "MEAN_MOTION_DDOT": 0}, "tle": {"line1": "1 46271U 93036BWT 25347.52158502  .00002237  00000+0  56149-3 0  9991", "line2": "2 46271  74.0483  76.7438 0040256 198.1951 161.7773 14.51432148846535"}}, "geometry": {"type": "Point", "coordinates": [-112.07358278464126, 20.98478443539518]}}, {"type": "Feature", "properties": {"norad_id": 46430, "name": "COSMOS 2251 DEB", "group": "cosmos-2251-debris", "lat": -39.59170903735306, "lon": -173.86830214292675, "alt_km": 680.2502883075758, "timestamp": "2025-12-14T20:40:32.171498+00:00", "meta": {"OBJECT_NAME": "COSMOS 2251 DEB", "OBJECT_ID": "1993-036BWU", "EPOCH": "2025-12-12T18:01:09.115680", "MEAN_MOTION": 14.51304268, "ECCENTRICITY": 0.01036453, "INCLINATION": 73.9144, "RA_OF_ASC_NODE": 356.326, "ARG_OF_PERICENTER": 276.5668, "MEAN_ANOMALY": 82.3702, "EPHEMERIS_TYPE": 0, "CLASSIFICATION_TYPE": "U", "NORAD_CAT_ID": 46430, "ELEMENT_SET_NO": 999, "REV_AT_EPOCH": 79683, "BSTAR": 0.0031599798, "MEAN_MOTION_DOT": 0.00013483, "MEAN_MOTION_DDOT": 0}, "tle": {"line1": "1 46430U 93036BWU 25346.75079995  .00013483  00000+0  31600-2 0  9999", "line2": "2 46430  73.9144 356.3260 0103645 276.5668  82.3702 14.51304268796830"}}, "geometry": {"type": "Point", "coordinates": [-173.86830214292675, -39.59170903735306]}}, {"type": "Feature", "properties": {"norad_id": 46432, "name": "COSMOS 2251 DEB", "group": "cosmos-2251-debris", "lat": -11.008058450038735, "lon": -68.82058057919281, "alt_km": 825.0385970804828, "timestamp": "2025-12-14T20:40:32.171508+00:00", "meta": {"OBJECT_NAME": "COSMOS 2251 DEB", "OBJECT_ID": "1993-036BWW", "EPOCH": "2025-12-10T15:12:54.844704", "MEAN_MOTION": 13.36630678, "ECCENTRICITY": 0.047382, "INCLINATION": 73.872, "RA_OF_ASC_NODE": 114.6117, "ARG_OF_PERICENTER": 232.4487, "MEAN_ANOMALY": 146.831, "EPHEMERIS_TYPE": 0, "CLASSIFICATION_TYPE": "U", "NORAD_CAT_ID": 46432, "ELEMENT_SET_NO": 999, "REV_AT_EPOCH": 66938, "BSTAR": 0.0019144, "MEAN_MOTION_DOT": 1.863e-05, "MEAN_MOTION_DDOT": 0}, "tle": {"line1": "1 46432U 93036BWW 25344.63396811  .00001863  00000+0  19144-2 0  9993", "line2": "2 46432  73.8720 114.6117 0473820 232.4487 146.8310 13.36630678669381"}}, "geometry": {"type": "Point", "coordinates": [-68.82058057919281, -11.008058450038735]}}, {"type": "Feature", "properties": {"norad_id": 47045, "name": "COSMOS 2251 DEB", "group": "cosmos-2251-debris", "lat": -57.70903100733921, "lon": 118.36566550255202, "alt_km": 747.8500758608106, "timestamp": "2025-12-14T20:40:32.171518+00:00", "meta": {"OBJECT_NAME": "COSMOS 2251 DEB", "OBJECT_ID": "1993-036BWZ", "EPOCH": "2025-12-08T18:12:30.966336", "MEAN_MOTION": 14.3889696, "ECCENTRICITY": 0.00302024, "INCLINATION": 74.0568, "RA_OF_ASC_NODE": 156.4972, "ARG_OF_PERICENTER": 298.2595, "MEAN_ANOMALY": 80.2379, "EPHEMERIS_TYPE": 0, "CLASSIFICATION_TYPE": "U", "NORAD_CAT_ID": 47045, "ELEMENT_SET_NO": 999, "REV_AT_EPOCH": 7748, "BSTAR": 0.00016053941, "MEAN_MOTION_DOT": 4.71e-06, "MEAN_MOTION_DDOT": 0}, "tle": {"line1": "1 47045U 93036BWZ 25342.75869174  .00000471  00000+0  16054-3 0  9994", "line2": "2 47045  74.0568 156.4972 0030202 298.2595  80.2379 14.38896960 77482"}}, "geometry": {"type": "Point", "coordinates": [118.36566550255202, -57.70903100733921]}}, {"type": "Feature", "properties": {"norad_id": 47048, "name": "COSMOS 2251 DEB", "group": "cosmos-2251-debris", "lat": -31.80166274091088, "lon": -55.090446502112286, "alt_km": 817.7664688264349, "timestamp": "2025-12-14T20:40:32.171528+00:00", "meta": {"OBJECT_NAME": "COSMOS 2251 DEB", "OBJECT_ID": "1993-036BXC", "EPOCH": "2025-12-12T16:45:08.160768", "MEAN_MOTION": 14.52302543, "ECCENTRICITY": 0.01328752, "INCLINATION": 73.9781, "RA_OF_ASC_NODE": 319.2649, "ARG_OF_PERICENTER": 147.2155, "MEAN_ANOMALY": 32.9715, "EPHEMERIS_TYPE": 0, "CLASSIFICATION_TYPE": "U", "NORAD_CAT_ID": 47048, "ELEMENT_SET_NO": 999, "REV_AT_EPOCH": 59689, "BSTAR": 0.0015366021, "MEAN_MOTION_DOT": 6.991e-05, "MEAN_MOTION_DDOT": 0}, "tle": {"line1": "1 47048U 93036BXC 25346.69801112  .00006991  00000+0  15366-2 0  9999", "line2": "2 47048  73.9781 319.2649 0132875 147.2155  32.9715 14.52302543596898"}}, "geometry": {"type": "Point", "coordinates": [-55.090446502112286, -31.80166274091088]}}, {"type": "Feature", "properties": {"norad_id": 47051, "name": "COSMOS 2251 DEB", "group": "cosmos-2251-debris", "lat": 3.7055386052272055, "lon": -178.8207333568845, "alt_km": 921.4541609391472, "timestamp": "2025-12-14T20:40:32.171538+00:00", "meta": {"OBJECT_NAME": "COSMOS 2251 DEB", "OBJECT_ID": "1993-036BXF", "EPOCH": "2025-12-13T06:55:53.868288", "MEAN_MOTION": 13.67117141, "ECCENTRICITY": 0.03401033, "INCLINATION": 74.1001, "RA_OF_ASC_NODE": 182.6908, "ARG_OF_PERICENTER": 296.1774, "MEAN_ANOMALY": 246.9893, "EPHEMERIS_TYPE": 0, "CLASSIFICATION_TYPE": "U", "NORAD_CAT_ID": 47051, "ELEMENT_SET_NO": 999, "REV_AT_EPOCH": 59945, "BSTAR": 0.0019326179, "MEAN_MOTION_DOT": 2.391e-05, "MEAN_MOTION_DDOT": 0}, "tle": {"line1": "1 47051U 93036BXF 25347.28881792  .00002391  00000+0  19326-2 0  9991", "line2": "2 47051  74.1001 182.6908 0340103 296.1774 246.9893 13.67117141599458"}}, "geometry": {"type": "Point", "coordinates": [-178.8207333568845, 3.7055386052272055]}}, {"type": "Feature", "properties": {"norad_id": 47052, "name": "COSMOS 2251 DEB", "group": "cosmos-2251-debris", "lat": -42.29863651247485, "lon": 171.52179795810537, "alt_km": 821.0546219810949, "timestamp": "2025-12-14T20:40:32.171570+00:00", "meta": {"OBJECT_NAME": "COSMOS 2251 DEB", "OBJECT_ID": "1993-036BXG", "EPOCH": "2025-12-13T17:42:34.547904", "MEAN_MOTION": 14.35482778, "ECCENTRICITY": 0.00580984, "INCLINATION": 74.0478, "RA_OF_ASC_NODE": 338.4955, "ARG_OF_PERICENTER": 52.4094, "MEAN_ANOMALY": 127.807, "EPHEMERIS_TYPE": 0, "CLASSIFICATION_TYPE": "U", "NORAD_CAT_ID": 47052, "ELEMENT_SET_NO": 999, "REV_AT_EPOCH": 61803, "BSTAR": 0.00037288685, "MEAN_MOTION_DOT": 1.067e-05, "MEAN_MOTION_DDOT": 0}, "tle": {"line1": "1 47052U 93036BXG 25347.73789986  .00001067  00000+0  37289-3 0  9992", "line2": "2 47052  74.0478 338.4955 0058098  52.4094 127.8070 14.35482778618033"}}, "geometry": {"type": "Point", "coordinates": [171.52179795810537, -42.29863651247485]}}, {"type": "Feature", "properties": {"norad_id": 47053, "name": "COSMOS 2251 DEB", "group": "cosmos-2251-debris", "lat": 36.45440570867763, "lon": 58.437633491394536, "alt_km": 966.0182628703324, "timestamp": "2025-12-14T20:40:32.171581+00:00", "meta": {"OBJECT_NAME": "COSMOS 2251 DEB", "OBJECT_ID": "1993-036BXH", "EPOCH": "2025-12-11T02:15:18.253728", "MEAN_MOTION": 13.59660001, "ECCENTRICITY": 0.03765467, "INCLINATION": 74.0597, "RA_OF_ASC_NODE": 256.721, "ARG_OF_PERICENTER": 70.6385, "MEAN_ANOMALY": 352.548, "EPHEMERIS_TYPE": 0, "CLASSIFICATION_TYPE": "U", "NORAD_CAT_ID": 47053, "ELEMENT_SET_NO": 999, "REV_AT_EPOCH": 28866, "BSTAR": 0.0019220925, "MEAN_MOTION_DOT": 2.258e-05, "MEAN_MOTION_DDOT": 0}, "tle": {"line1": "1 47053U 93036BXH 25345.09396127  .00002258  00000+0  19221-2 0  9999", "line2": "2 47053  74.0597 256.7210 0376546  70.6385 352.5480 13.59660001288664"}}, "geometry": {"type": "Point", "coordinates": [58.437633491394536, 36.45440570867763]}}, {"type": "Feature", "properties": {"norad_id": 47059, "name": "COSMOS 2251 DEB", "group": "cosmos-2251-debris", "lat": 72.08518735184283, "lon": -66.27939879397363, "alt_km": 512.7488074150342, "timestamp": "2025-12-14T20:40:32.171591+00:00", "meta": {"OBJECT_NAME": "COSMOS 2251 DEB", "OBJECT_ID": "1993-036BXP", "EPOCH": "2025-12-12T01:57:33.172416", "MEAN_MOTION": 15.12724951, "ECCENTRICITY": 0.00125007, "INCLINATION": 73.9813, "RA_OF_ASC_NODE": 236.7898, "ARG_OF_PERICENTER": 50.1346, "MEAN_ANOMALY": 17.873, "EPHEMERIS_TYPE": 0, "CLASSIFICATION_TYPE": "U", "NORAD_CAT_ID": 47059, "ELEMENT_SET_NO": 999, "REV_AT_EPOCH": 8295, "BSTAR": 0.0036258701, "MEAN_MOTION_DOT": 0.00064189, "MEAN_MOTION_DDOT": 0}, "tle": {"line1": "1 47059U 93036BXP 25346.08163394  .00064189  00000+0  36259-2 0  9994", "line2": "2 47059  73.9813 236.7898 0012500  50.1346  17.8730 15.12724951 82955"}}, "geometry": {"type": "Point", "coordinates": [-66.27939879397363, 72.08518735184283]}}, {"type": "Feature", "properties": {"norad_id": 47062, "name": "COSMOS 2251 DEB", "group": "cosmos-2251-debris", "lat": 55.948660902155005, "lon": -130.2995056961065, "alt_km": 936.4810618994061, "timestamp": "2025-12-14T20:40:32.171601+00:00", "meta": {"OBJECT_NAME": "COSMOS 2251 DEB", "OBJECT_ID": "1993-036BXS", "EPOCH": "2025-12-13T23:56:30.676992", "MEAN_MOTION": 13.71952164, "ECCENTRICITY": 0.03233862, "INCLINATION": 74.0831, "RA_OF_ASC_NODE": 76.1003, "ARG_OF_PERICENTER": 201.6929, "MEAN_ANOMALY": 337.1469, "EPHEMERIS_TYPE": 0, "CLASSIFICATION_TYPE": "U", "NORAD_CAT_ID": 47062, "ELEMENT_SET_NO": 999, "REV_AT_EPOCH": 55619, "BSTAR": 0.0017198262, "MEAN_MOTION_DOT": 2.244e-05, "MEAN_MOTION_DDOT": 0}, "tle": {"line1": "1 47062U 93036BXS 25347.99757728  .00002244  00000+0  17198-2 0  9994", "line2": "2 47062  74.0831  76.1003 0323386 201.6929 337.1469 13.71952164556193"}}, "geometry": {"type": "Point", "coordinates": [-130.2995056961065, 55.948660902155005]}}]}